CTC2_L_00332016-03
1 23087U 25755JD  26037.47793981  .00000000  00000+0  00000-0 0  9999
2 23087  75.0000 180.0000 0000000   0.0000   0.0000 13.56072426    10
CTC2_L_00332016-04
1 23088U 25731PY  26037.47793981  .00000000  00000+0  00000-0 0  9994
2 23088  75.0000 180.0000 0000000   0.0000  90.0000 13.56072426    10
CTC2_L_00332017-01
1 23089U 26617XM  26037.47793981  .00000000  00000+0  00000-0 0  9999
2 23089  75.0000 192.0000 0000000   0.0000 192.0000 13.56072426    17
CTC2_L_00332017-02
1 23090U 22580LJ  26037.47793981  .00000000  00000+0  00000-0 0  9996
2 23090  75.0000 192.0000 0000000   0.0000 282.0000 13.56072426    19
CTC2_L_00332017-03
1 23091U 24485XN  26037.47793981  .00000000  00000+0  00000-0 0  9993
2 23091  75.0000 192.0000 0000000   0.0000  12.0000 13.56072426    11
CTC2_L_00332017-04
1 23092U 23072DY  26037.47793981  .00000000  00000+0  00000-0 0  9995
2 23092  75.0000 192.0000 0000000   0.0000 102.0000 13.56072426    12
CTC2_L_00332018-01
1 23093U 22898RG  26037.47793981  .00000000  00000+0  00000-0 0  9991
2 23093  75.0000 204.0000 0000000   0.0000 204.0000 13.56072426    10
CTC2_L_00332018-02
1 23094U 22973TQ  26037.47793981  .00000000  00000+0  00000-0 0  9996
2 23094  75.0000 204.0000 0000000   0.0000 294.0000 13.56072426    10
CTC2_L_00332018-03
1 23095U 22734ON  26037.47793981  .00000000  00000+0  00000-0 0  9992
2 23095  75.0000 204.0000 0000000   0.0000  24.0000 13.56072426    12
CTC2_L_00332018-04
1 23096U 25185SA  26037.47793981  .00000000  00000+0  00000-0 0  9996
2 23096  75.0000 204.0000 0000000   0.0000 114.0000 13.56072426    13
CTC2_L_00332019-01
1 23097U 26244CB  26037.47793981  .00000000  00000+0  00000-0 0  9994
2 23097  75.0000 216.0000 0000000   0.0000 216.0000 13.56072426    10
CTC2_L_00332019-02
1 23098U 23575LT  26037.47793981  .00000000  00000+0  00000-0 0  9999
2 23098  75.0000 216.0000 0000000   0.0000 306.0000 13.56072426    11
CTC2_L_00332019-03
1 23099U 25981PI  26037.47793981  .00000000  00000+0  00000-0 0  9993
2 23099  75.0000 216.0000 0000000   0.0000  36.0000 13.56072426    12
CTC2_L_00332019-04
1 23100U 26028MC  26037.47793981  .00000000  00000+0  00000-0 0  9999
2 23100  75.0000 216.0000 0000000   0.0000 126.0000 13.56072426    15
CTC2_L_00332020-01
1 23101U 24406CN  26037.47793981  .00000000  00000+0  00000-0 0  9998
2 23101  75.0000 228.0000 0000000   0.0000 228.0000 13.56072426    12
CTC2_L_00332020-02
1 23102U 26413RG  26037.47793981  .00000000  00000+0  00000-0 0  9999
2 23102  75.0000 228.0000 0000000   0.0000 318.0000 13.56072426    13
CTC2_L_00332020-03
1 23103U 26402KW  26037.47793981  .00000000  00000+0  00000-0 0  9998
2 23103  75.0000 228.0000 0000000   0.0000  48.0000 13.56072426    14
CTC2_L_00332020-04
1 23104U 22677UV  26037.47793981  .00000000  00000+0  00000-0 0  9999
2 23104  75.0000 228.0000 0000000   0.0000 138.0000 13.56072426    15
CTC2_L_00332021-01
1 23105U 22096BU  26037.47793981  .00000000  00000+0  00000-0 0  9995
2 23105  75.0000 240.0000 0000000   0.0000 240.0000 13.56072426    14
CTC2_L_00332021-02
1 23106U 24253DV  26037.47793981  .00000000  00000+0  00000-0 0  9993
2 23106  75.0000 240.0000 0000000   0.0000 330.0000 13.56072426    15
CTC2_L_00332021-03
1 23107U 26798QJ  26037.47793981  .00000000  00000+0  00000-0 0  9990
2 23107  75.0000 240.0000 0000000   0.0000  60.0000 13.56072426    16
CTC2_L_00332021-04
1 23108U 22398IR  26037.47793981  .00000000  00000+0  00000-0 0  9993
2 23108  75.0000 240.0000 0000000   0.0000 150.0000 13.56072426    17
CTC2_L_00332022-01
1 23109U 25365X   26037.47793981  .00000000  00000+0  00000-0 0  9991
2 23109  75.0000 252.0000 0000000   0.0000 252.0000 13.56072426    14
CTC2_L_00332022-02
1 23110U 23896BN  26037.47793981  .00000000  00000+0  00000-0 0  9990
2 23110  75.0000 252.0000 0000000   0.0000 342.0000 13.56072426    16
CTC2_L_00332022-03
1 23111U 23577PY  26037.47793981  .00000000  00000+0  00000-0 0  9997
2 23111  75.0000 252.0000 0000000   0.0000  72.0000 13.56072426    17
CTC2_L_00332022-04
1 23112U 24347JO  26037.47793981  .00000000  00000+0  00000-0 0  9994
2 23112  75.0000 252.0000 0000000   0.0000 162.0000 13.56072426    18
CTC2_L_00332023-01
1 23113U 23771GL  26037.47793981  .00000000  00000+0  00000-0 0  9995
2 23113  75.0000 264.0000 0000000   0.0000 264.0000 13.56072426    15
CTC2_L_00332023-02
1 23114U 23918YZ  26037.47793981  .00000000  00000+0  00000-0 0  9999
2 23114  75.0000 264.0000 0000000   0.0000 354.0000 13.56072426    16
CTC2_L_00332023-03
1 23115U 22534IU  26037.47793981  .00000000  00000+0  00000-0 0  9993
2 23115  75.0000 264.0000 0000000   0.0000  84.0000 13.56072426    17
CTC2_L_00332023-04
1 23116U 25596NJ  26037.47793981  .00000000  00000+0  00000-0 0  9995
2 23116  75.0000 264.0000 0000000   0.0000 174.0000 13.56072426    18
CTC2_L_00332024-01
1 23117U 22585WY  26037.47793981  .00000000  00000+0  00000-0 0  9991
2 23117  75.0000 276.0000 0000000   0.0000 276.0000 13.56072426    15
CTC2_L_00332024-02
1 23118U 24659WY  26037.47793981  .00000000  00000+0  00000-0 0  9996
2 23118  75.0000 276.0000 0000000   0.0000   6.0000 13.56072426    17
CTC2_L_00332024-03
1 23119U 25212ZJ  26037.47793981  .00000000  00000+0  00000-0 0  9993
2 23119  75.0000 276.0000 0000000   0.0000  96.0000 13.56072426    17
CTC2_L_00332024-04
1 23120U 26401YZ  26037.47793981  .00000000  00000+0  00000-0 0  9996
2 23120  75.0000 276.0000 0000000   0.0000 186.0000 13.56072426    19
CTC2_L_00332025-01
1 23121U 23392PH  26037.47793981  .00000000  00000+0  00000-0 0  9993
2 23121  75.0000 288.0000 0000000   0.0000 288.0000 13.56072426    16
CTC2_L_00332025-02
1 23122U 25813W   26037.47793981  .00000000  00000+0  00000-0 0  9994
2 23122  75.0000 288.0000 0000000   0.0000  18.0000 13.56072426    18
CTC2_L_00332025-03
1 23123U 23603FX  26037.47793981  .00000000  00000+0  00000-0 0  9990
2 23123  75.0000 288.0000 0000000   0.0000 108.0000 13.56072426    19
CTC2_L_00332025-04
1 23124U 24213XE  26037.47793981  .00000000  00000+0  00000-0 0  9999
2 23124  75.0000 288.0000 0000000   0.0000 198.0000 13.56072426    19
CTC2_L_00332026-01
1 23125U 26052WS  26037.47793981  .00000000  00000+0  00000-0 0  9993
2 23125  75.0000 300.0000 0000000   0.0000 300.0000 13.56072426    10
CTC2_L_00332026-02
1 23126U 23279LR  26037.47793981  .00000000  00000+0  00000-0 0  9992
2 23126  75.0000 300.0000 0000000   0.0000  30.0000 13.56072426    11
CTC2_L_00332026-03
1 23127U 26954BW  26037.47793981  .00000000  00000+0  00000-0 0  9996
2 23127  75.0000 300.0000 0000000   0.0000 120.0000 13.56072426    12
CTC2_L_00332026-04
1 23128U 22406KA  26037.47793981  .00000000  00000+0  00000-0 0  9995
2 23128  75.0000 300.0000 0000000   0.0000 210.0000 13.56072426    13
CTC2_L_00332027-01
1 23129U 23930FR  26037.47793981  .00000000  00000+0  00000-0 0  9999
2 23129  75.0000 312.0000 0000000   0.0000 312.0000 13.56072426    10
CTC2_L_00332027-02
1 23130U 23267RX  26037.47793981  .00000000  00000+0  00000-0 0  9994
2 23130  75.0000 312.0000 0000000   0.0000  42.0000 13.56072426    12
CTC2_L_00332027-03
1 23131U 23339IW  26037.47793981  .00000000  00000+0  00000-0 0  9995
2 23131  75.0000 312.0000 0000000   0.0000 132.0000 13.56072426    13
CTC2_L_00332027-04
1 23132U 26140DM  26037.47793981  .00000000  00000+0  00000-0 0  9999
2 23132  75.0000 312.0000 0000000   0.0000 222.0000 13.56072426    14
CTC2_L_00332028-01
1 23133U 22267TJ  26037.47793981  .00000000  00000+0  00000-0 0  9996
2 23133  75.0000 324.0000 0000000   0.0000 324.0000 13.56072426    11
CTC2_L_00332028-02
1 23134U 22568RX  26037.47793981  .00000000  00000+0  00000-0 0  9991
2 23134  75.0000 324.0000 0000000   0.0000  54.0000 13.56072426    12
CTC2_L_00332028-03
1 23135U 25901SI  26037.47793981  .00000000  00000+0  00000-0 0  9996
2 23135  75.0000 324.0000 0000000   0.0000 144.0000 13.56072426    13
CTC2_L_00332028-04
1 23136U 25004MJ  26037.47793981  .00000000  00000+0  00000-0 0  9991
2 23136  75.0000 324.0000 0000000   0.0000 234.0000 13.56072426    14
CTC2_L_00332029-01
1 23137U 24069JM  26037.47793981  .00000000  00000+0  00000-0 0  9992
2 23137  75.0000 336.0000 0000000   0.0000 336.0000 13.56072426    11
CTC2_L_00332029-02
1 23138U 23422PJ  26037.47793981  .00000000  00000+0  00000-0 0  9995
2 23138  75.0000 336.0000 0000000   0.0000  66.0000 13.56072426    12
CTC2_L_00332029-03
1 23139U 25911HD  26037.47793981  .00000000  00000+0  00000-0 0  9991
2 23139  75.0000 336.0000 0000000   0.0000 156.0000 13.56072426    13
CTC2_L_00332029-04
1 23140U 23712SK  26037.47793981  .00000000  00000+0  00000-0 0  9990
2 23140  75.0000 336.0000 0000000   0.0000 246.0000 13.56072426    15
CTC2_L_00332030-01
1 23141U 22237GV  26037.47793981  .00000000  00000+0  00000-0 0  9992
2 23141  75.0000 348.0000 0000000   0.0000 348.0000 13.56072426    12
CTC2_L_00332030-02
1 23142U 25311FB  26037.47793981  .00000000  00000+0  00000-0 0  9999
2 23142  75.0000 348.0000 0000000   0.0000  78.0000 13.56072426    13
CTC2_L_00332030-03
1 23143U 25706BS  26037.47793981  .00000000  00000+0  00000-0 0  9998
2 23143  75.0000 348.0000 0000000   0.0000 168.0000 13.56072426    14
CTC2_L_00332030-04
1 23144U 26686AD  26037.47793981  .00000000  00000+0  00000-0 0  9997
2 23144  75.0000 348.0000 0000000   0.0000 258.0000 13.56072426    15
